[
    {
        "Altitude(m)": 570781.3159657024,
        "Argument of Periapsis(deg)": 0.013245982221427002,
        "Eccentricity": 0.0,
        "Inclination(deg)": 53.0,
        "Latitude(deg)": -50.432517976937525,
        "Longitude(deg)": -126.6653285028701,
        "Mean Anomaly(deg)": 285.63778573515515,
        "RAAN(deg)": 39.98028673705603,
        "Satellite Name": "Starlink Shell 1 192",
        "Satellite Number": 192,
        "Semi-Major Axis(m)": 6931778.249405717,
        "Time(s)": 380
    },
    {
        "Altitude(m)": 570696.398745805,
        "Argument of Periapsis(deg)": 0.013594560700938237,
        "Eccentricity": 0.0,
        "Inclination(deg)": 53.0,
        "Latitude(deg)": -50.21857765670264,
        "Longitude(deg)": -125.78950231455048,
        "Mean Anomaly(deg)": 286.2646169387119,
        "RAAN(deg)": 39.97976796697856,
        "Satellite Name": "Starlink Shell 1 192",
        "Satellite Number": 192,
        "Semi-Major Axis(m)": 6931778.249405717,
        "Time(s)": 390
    },
    {
        "Altitude(m)": 570608.4574402168,
        "Argument of Periapsis(deg)": 0.013943139180449475,
        "Eccentricity": 0.0,
        "Inclination(deg)": 53.0,
        "Latitude(deg)": -49.997456314258365,
        "Longitude(deg)": -124.92196278264261,
        "Mean Anomaly(deg)": 286.8914481422686,
        "RAAN(deg)": 39.97924919690109,
        "Satellite Name": "Starlink Shell 1 192",
        "Satellite Number": 192,
        "Semi-Major Axis(m)": 6931778.249405717,
        "Time(s)": 400
    },
    {
        "Altitude(m)": 570517.5269923089,
        "Argument of Periapsis(deg)": 0.014291717659960712,
        "Eccentricity": 0.0,
        "Inclination(deg)": 53.0,
        "Latitude(deg)": -49.76927377521896,
        "Longitude(deg)": -124.06283595342057,
        "Mean Anomaly(deg)": 287.5182793458253,
        "RAAN(deg)": 39.97873042682362,
        "Satellite Name": "Starlink Shell 1 192",
        "Satellite Number": 192,
        "Semi-Major Axis(m)": 6931778.249405717,
        "Time(s)": 410
    },
    {
        "Altitude(m)": 570423.6435218612,
        "Argument of Periapsis(deg)": 0.014640296139471948,
        "Eccentricity": 0.0,
        "Inclination(deg)": 53.0,
        "Latitude(deg)": -49.53415097469994,
        "Longitude(deg)": -123.21223338012386,
        "Mean Anomaly(deg)": 288.1451105493821,
        "RAAN(deg)": 39.97821165674614,
        "Satellite Name": "Starlink Shell 1 192",
        "Satellite Number": 192,
        "Semi-Major Axis(m)": 6931778.249405717,
        "Time(s)": 420
    },
    {
        "Altitude(m)": 570326.8443093738,
        "Argument of Periapsis(deg)": 0.014988874618983185,
        "Eccentricity": 0.0,
        "Inclination(deg)": 53.0,
        "Latitude(deg)": -49.292209720494064,
        "Longitude(deg)": -122.37025199705043,
        "Mean Anomaly(deg)": 288.7719417529388,
        "RAAN(deg)": 39.97769288666867,
        "Satellite Name": "Starlink Shell 1 192",
        "Satellite Number": 192,
        "Semi-Major Axis(m)": 6931778.249405717,
        "Time(s)": 430
    },
    {
        "Altitude(m)": 570227.1677797956,
        "Argument of Periapsis(deg)": 0.015337453098494424,
        "Eccentricity": 0.0,
        "Inclination(deg)": 53.0,
        "Latitude(deg)": -49.043572465736254,
        "Longitude(deg)": -121.53697403080888,
        "Mean Anomaly(deg)": 289.3987729564955,
        "RAAN(deg)": 39.9771741165912,
        "Satellite Name": "Starlink Shell 1 192",
        "Satellite Number": 192,
        "Semi-Major Axis(m)": 6931778.249405717,
        "Time(s)": 440
    },
    {
        "Altitude(m)": 570124.6534858264,
        "Argument of Periapsis(deg)": 0.01568603157800566,
        "Eccentricity": 0.0,
        "Inclination(deg)": 53.0,
        "Latitude(deg)": -48.788362091553246,
        "Longitude(deg)": -120.71246845662294,
        "Mean Anomaly(deg)": 290.0256041600522,
        "RAAN(deg)": 39.97665534651372,
        "Satellite Name": "Starlink Shell 1 192",
        "Satellite Number": 192,
        "Semi-Major Axis(m)": 6931778.249405717,
        "Time(s)": 450
    },
    {
        "Altitude(m)": 570019.3420906574,
        "Argument of Periapsis(deg)": 0.0160346100575169,
        "Eccentricity": 0.0,
        "Inclination(deg)": 53.0,
        "Latitude(deg)": -48.52670170009209,
        "Longitude(deg)": -119.89679096907855,
        "Mean Anomaly(deg)": 290.6524353636089,
        "RAAN(deg)": 39.976136576436254,
        "Satellite Name": "Starlink Shell 1 192",
        "Satellite Number": 192,
        "Semi-Major Axis(m)": 6931778.249405717,
        "Time(s)": 460
    },
    {
        "Altitude(m)": 569911.2753502647,
        "Argument of Periapsis(deg)": 0.016383188537028134,
        "Eccentricity": 0.0,
        "Inclination(deg)": 53.0,
        "Latitude(deg)": -48.258714418218545,
        "Longitude(deg)": -119.08998397550857,
        "Mean Anomaly(deg)": 291.2792665671657,
        "RAAN(deg)": 39.97561780635878,
        "Satellite Name": "Starlink Shell 1 192",
        "Satellite Number": 192,
        "Semi-Major Axis(m)": 6931778.249405717,
        "Time(s)": 470
    },
    {
        "Altitude(m)": 569800.4960951686,
        "Argument of Periapsis(deg)": 0.01673176701653937,
        "Eccentricity": 0.0,
        "Inclination(deg)": 53.0,
        "Latitude(deg)": -47.98452321208082,
        "Longitude(deg)": -118.29207812040804,
        "Mean Anomaly(deg)": 291.9060977707223,
        "RAAN(deg)": 39.97509903628131,
        "Satellite Name": "Starlink Shell 1 192",
        "Satellite Number": 192,
        "Semi-Major Axis(m)": 6931778.249405717,
        "Time(s)": 480
    },
    {
        "Altitude(m)": 569687.0482117694,
        "Argument of Periapsis(deg)": 0.017080345496050607,
        "Eccentricity": 0.0,
        "Inclination(deg)": 53.0,
        "Latitude(deg)": -47.70425071265368,
        "Longitude(deg)": -117.50309231088477,
        "Mean Anomaly(deg)": 292.53292897427906,
        "RAAN(deg)": 39.97458026620384,
        "Satellite Name": "Starlink Shell 1 192",
        "Satellite Number": 192,
        "Semi-Major Axis(m)": 6931778.249405717,
        "Time(s)": 490
    },
    {
        "Altitude(m)": 569570.9766231551,
        "Argument of Periapsis(deg)": 0.017428923975561842,
        "Eccentricity": 0.0,
        "Inclination(deg)": 53.0,
        "Latitude(deg)": -47.41801905229177,
        "Longitude(deg)": -116.7230337520307,
        "Mean Anomaly(deg)": 293.1597601778358,
        "RAAN(deg)": 39.97406149612636,
        "Satellite Name": "Starlink Shell 1 192",
        "Satellite Number": 192,
        "Semi-Major Axis(m)": 6931778.249405717,
        "Time(s)": 500
    },
    {
        "Altitude(m)": 569452.3272695001,
        "Argument of Periapsis(deg)": 0.01777750245507308,
        "Eccentricity": 0.0,
        "Inclination(deg)": 53.0,
        "Latitude(deg)": -47.12594971224807,
        "Longitude(deg)": -115.9518995013663,
        "Mean Anomaly(deg)": 293.78659138139244,
        "RAAN(deg)": 39.97354272604889,
        "Satellite Name": "Starlink Shell 1 192",
        "Satellite Number": 192,
        "Semi-Major Axis(m)": 6931778.249405717,
        "Time(s)": 510
    },
    {
        "Altitude(m)": 569331.1470879593,
        "Argument of Periapsis(deg)": 0.018126080934584315,
        "Eccentricity": 0.0,
        "Inclination(deg)": 53.0,
        "Latitude(deg)": -46.82816338105218,
        "Longitude(deg)": -115.18967651316909,
        "Mean Anomaly(deg)": 294.4134225849492,
        "RAAN(deg)": 39.97302395597142,
        "Satellite Name": "Starlink Shell 1 192",
        "Satellite Number": 192,
        "Semi-Major Axis(m)": 6931778.249405717,
        "Time(s)": 520
    },
    {
        "Altitude(m)": 569207.483992145,
        "Argument of Periapsis(deg)": 0.018474659414095554,
        "Eccentricity": 0.0,
        "Inclination(deg)": 53.0,
        "Latitude(deg)": -46.52477982358003,
        "Longitude(deg)": -114.43634168240956,
        "Mean Anomaly(deg)": 295.0402537885059,
        "RAAN(deg)": 39.97250518589394,
        "Satellite Name": "Starlink Shell 1 192",
        "Satellite Number": 192,
        "Semi-Major Axis(m)": 6931778.249405717,
        "Time(s)": 530
    },
    {
        "Altitude(m)": 569081.3868511571,
        "Argument of Periapsis(deg)": 0.018823237893606792,
        "Eccentricity": 0.0,
        "Inclination(deg)": 53.0,
        "Latitude(deg)": -46.21591776059447,
        "Longitude(deg)": -113.6918633983053,
        "Mean Anomaly(deg)": 295.66708499206266,
        "RAAN(deg)": 39.97198641581647,
        "Satellite Name": "Starlink Shell 1 192",
        "Satellite Number": 192,
        "Semi-Major Axis(m)": 6931778.249405717,
        "Time(s)": 540
    },
    {
        "Altitude(m)": 568952.9054681819,
        "Argument of Periapsis(deg)": 0.019171816373118027,
        "Eccentricity": 0.0,
        "Inclination(deg)": 53.0,
        "Latitude(deg)": -45.90169475849597,
        "Longitude(deg)": -112.95620157916596,
        "Mean Anomaly(deg)": 296.2939161956193,
        "RAAN(deg)": 39.971467645739,
        "Satellite Name": "Starlink Shell 1 192",
        "Satellite Number": 192,
        "Semi-Major Axis(m)": 6931778.249405717,
        "Time(s)": 550
    },
    {
        "Altitude(m)": 568822.0905586557,
        "Argument of Periapsis(deg)": 0.019520394852629266,
        "Eccentricity": 0.0,
        "Inclination(deg)": 53.0,
        "Latitude(deg)": -45.582227128980726,
        "Longitude(deg)": -112.22930769910909,
        "Mean Anomaly(deg)": 296.9207473991761,
        "RAAN(deg)": 39.97094887566152,
        "Satellite Name": "Starlink Shell 1 192",
        "Satellite Number": 192,
        "Semi-Major Axis(m)": 6931778.249405717,
        "Time(s)": 560
    }
]